[{"OBJECT_NAME":"ONEWEB-0060","OBJECT_ID":"2020-020AH","EPOCH":"2026-01-06T04:40:43.472640","MEAN_MOTION":13.11418613,"ECCENTRICITY":0.00022447,"INCLINATION":87.8826,"RA_OF_ASC_NODE":53.3224,"ARG_OF_PERICENTER":73.2741,"MEAN_ANOMALY":286.8633,"EPHEMERIS_TYPE":0,"CLASSIFICATION_TYPE":"U","NORAD_CAT_ID":45455,"ELEMENT_SET_NO":999,"REV_AT_EPOCH":28131,"BSTAR":0.0015739516,"MEAN_MOTION_DOT":5.71e-6,"MEAN_MOTION_DDOT":0},{"OBJECT_NAME":"ONEWEB-0086","OBJECT_ID":"2020-020AJ","EPOCH":"2026-01-06T04:10:11.378784","MEAN_MOTION":13.11418789,"ECCENTRICITY":0.00015437,"INCLINATION":87.8838,"RA_OF_ASC_NODE":53.3088,"ARG_OF_PERICENTER":72.638,"MEAN_ANOMALY":287.4917,"EPHEMERIS_TYPE":0,"CLASSIFICATION_TYPE":"U","NORAD_CAT_ID":45456,"ELEMENT_SET_NO":999,"REV_AT_EPOCH":28137,"BSTAR":0.00051248108,"MEAN_MOTION_DOT":1.94e-6,"MEAN_MOTION_DDOT":0},{"OBJECT_NAME":"ONEWEB-0088","OBJECT_ID":"2020-020AK","EPOCH":"2026-01-06T03:38:26.534400","MEAN_MOTION":13.11418502,"ECCENTRICITY":0.00020509,"INCLINATION":87.8848,"RA_OF_ASC_NODE":53.2714,"ARG_OF_PERICENTER":100.7276,"MEAN_ANOMALY":259.4083,"EPHEMERIS_TYPE":0,"CLASSIFICATION_TYPE":"U","NORAD_CAT_ID":45457,"ELEMENT_SET_NO":999,"REV_AT_EPOCH":28130,"BSTAR":-0.0013207975,"MEAN_MOTION_DOT":-4.55e-6,"MEAN_MOTION_DDOT":0},{"OBJECT_NAME":"ONEWEB-0102","OBJECT_ID":"2020-100A","EPOCH":"2026-01-06T06:46:46.948512","MEAN_MOTION":13.12400745,"ECCENTRICITY":0.0001408,"INCLINATION":87.8918,"RA_OF_ASC_NODE":22.8359,"ARG_OF_PERICENTER":90.1285,"MEAN_ANOMALY":270.0005,"EPHEMERIS_TYPE":0,"CLASSIFICATION_TYPE":"U","NORAD_CAT_ID":47258,"ELEMENT_SET_NO":999,"REV_AT_EPOCH":24349,"BSTAR":-0.014958324,"MEAN_MOTION_DOT":-5.362e-5,"MEAN_MOTION_DDOT":0},{"OBJECT_NAME":"ONEWEB-0109","OBJECT_ID":"2020-100B","EPOCH":"2026-01-06T06:58:56.085024","MEAN_MOTION":13.12441746,"ECCENTRICITY":0.00016155,"INCLINATION":87.8923,"RA_OF_ASC_NODE":22.805,"ARG_OF_PERICENTER":92.7725,"MEAN_ANOMALY":267.3588,"EPHEMERIS_TYPE":0,"CLASSIFICATION_TYPE":"U","NORAD_CAT_ID":47259,"ELEMENT_SET_NO":999,"REV_AT_EPOCH":24332,"BSTAR":-0.0012274386,"MEAN_MOTION_DOT":-4.29e-6,"MEAN_MOTION_DDOT":0},{"OBJECT_NAME":"ONEWEB-0110","OBJECT_ID":"2020-100C","EPOCH":"2026-01-06T07:37:59.204640","MEAN_MOTION":13.12444074,"ECCENTRICITY":0.00016612,"INCLINATION":87.8926,"RA_OF_ASC_NODE":22.7839,"ARG_OF_PERICENTER":80.8645,"MEAN_ANOMALY":279.2671,"EPHEMERIS_TYPE":0,"CLASSIFICATION_TYPE":"U","NORAD_CAT_ID":47260,"ELEMENT_SET_NO":999,"REV_AT_EPOCH":24349,"BSTAR":0.00016443321,"MEAN_MOTION_DOT":7.2e-7,"MEAN_MOTION_DDOT":0},{"OBJECT_NAME":"ONEWEB-0111","OBJECT_ID":"2020-100D","EPOCH":"2026-01-06T06:32:06.580896","MEAN_MOTION":13.12442886,"ECCENTRICITY":0.00018521,"INCLINATION":87.8926,"RA_OF_ASC_NODE":22.8112,"ARG_OF_PERICENTER":88.3469,"MEAN_ANOMALY":271.7872,"EPHEMERIS_TYPE":0,"CLASSIFICATION_TYPE":"U","NORAD_CAT_ID":47261,"ELEMENT_SET_NO":999,"REV_AT_EPOCH":24332,"BSTAR":0.00053394007,"MEAN_MOTION_DOT":2.05e-6,"MEAN_MOTION_DDOT":0},{"OBJECT_NAME":"ONEWEB-0114","OBJECT_ID":"2020-100E","EPOCH":"2026-01-06T07:16:00.878016","MEAN_MOTION":13.12443293,"ECCENTRICITY":0.00015603,"INCLINATION":87.8928,"RA_OF_ASC_NODE":22.8004,"ARG_OF_PERICENTER":102.7351,"MEAN_ANOMALY":257.3952,"EPHEMERIS_TYPE":0,"CLASSIFICATION_TYPE":"U","NORAD_CAT_ID":47262,"ELEMENT_SET_NO":999,"REV_AT_EPOCH":24328,"BSTAR":-0.001096902,"MEAN_MOTION_DOT":-3.82e-6,"MEAN_MOTION_DDOT":0},{"OBJECT_NAME":"ONEWEB-0117","OBJECT_ID":"2020-100F","EPOCH":"2026-01-06T01:34:28.366176","MEAN_MOTION":13.12442139,"ECCENTRICITY":0.00017593,"INCLINATION":87.8926,"RA_OF_ASC_NODE":22.844,"ARG_OF_PERICENTER":90.561,"MEAN_ANOMALY":269.572,"EPHEMERIS_TYPE":0,"CLASSIFICATION_TYPE":"U","NORAD_CAT_ID":47263,"ELEMENT_SET_NO":999,"REV_AT_EPOCH":24326,"BSTAR":-0.0010216595,"MEAN_MOTION_DOT":-3.55e-6,"MEAN_MOTION_DDOT":0},{"OBJECT_NAME":"ONEWEB-0118","OBJECT_ID":"2020-100G","EPOCH":"2026-01-06T07:52:38.444736","MEAN_MOTION":13.12443939,"ECCENTRICITY":0.00017943,"INCLINATION":87.8927,"RA_OF_ASC_NODE":22.792,"ARG_OF_PERICENTER":102.6854,"MEAN_ANOMALY":257.4475,"EPHEMERIS_TYPE":0,"CLASSIFICATION_TYPE":"U","NORAD_CAT_ID":47264,"ELEMENT_SET_NO":999,"REV_AT_EPOCH":24349,"BSTAR":0.0012282306,"MEAN_MOTION_DOT":4.55e-6,"MEAN_MOTION_DDOT":0},{"OBJECT_NAME":"ONEWEB-0119","OBJECT_ID":"2020-100H","EPOCH":"2026-01-06T06:39:26.887392","MEAN_MOTION":13.12439172,"ECCENTRICITY":0.00017285,"INCLINATION":87.8917,"RA_OF_ASC_NODE":22.8336,"ARG_OF_PERICENTER":91.5409,"MEAN_ANOMALY":268.5918,"EPHEMERIS_TYPE":0,"CLASSIFICATION_TYPE":"U","NORAD_CAT_ID":47265,"ELEMENT_SET_NO":999,"REV_AT_EPOCH":24346,"BSTAR":0.00205157,"MEAN_MOTION_DOT":7.51e-6,"MEAN_MOTION_DDOT":0},{"OBJECT_NAME":"ONEWEB-0120","OBJECT_ID":"2020-100J","EPOCH":"2026-01-06T07:13:46.180416","MEAN_MOTION":13.12442211,"ECCENTRICITY":0.00016643,"INCLINATION":87.8917,"RA_OF_ASC_NODE":22.8303,"ARG_OF_PERICENTER":93.5327,"MEAN_ANOMALY":266.5992,"EPHEMERIS_TYPE":0,"CLASSIFICATION_TYPE":"U","NORAD_CAT_ID":47266,"ELEMENT_SET_NO":999,"REV_AT_EPOCH":24349,"BSTAR":-0.0011481041,"MEAN_MOTION_DOT":-4.0e-6,"MEAN_MOTION_DDOT":0},{"OBJECT_NAME":"ONEWEB-0121","OBJECT_ID":"2020-100K","EPOCH":"2026-01-06T06:56:28.785984","MEAN_MOTION":13.12441389,"ECCENTRICITY":0.00017768,"INCLINATION":87.8924,"RA_OF_ASC_NODE":22.8028,"ARG_OF_PERICENTER":84.7711,"MEAN_ANOMALY":275.362,"EPHEMERIS_TYPE":0,"CLASSIFICATION_TYPE":"U","NORAD_CAT_ID":47267,"ELEMENT_SET_NO":999,"REV_AT_EPOCH":24340,"BSTAR":-0.0013456341,"MEAN_MOTION_DOT":-4.71e-6,"MEAN_MOTION_DDOT":0},{"OBJECT_NAME":"ONEWEB-0122","OBJECT_ID":"2020-100L","EPOCH":"2026-01-06T06:48:58.889952","MEAN_MOTION":13.12445217,"ECCENTRICITY":0.00015604,"INCLINATION":87.8924,"RA_OF_ASC_NODE":22.8064,"ARG_OF_PERICENTER":89.1921,"MEAN_ANOMALY":270.9386,"EPHEMERIS_TYPE":0,"CLASSIFICATION_TYPE":"U","NORAD_CAT_ID":47268,"ELEMENT_SET_NO":999,"REV_AT_EPOCH":24331,"BSTAR":-0.00060461078,"MEAN_MOTION_DOT":-2.05e-6,"MEAN_MOTION_DDOT":0},{"OBJECT_NAME":"ONEWEB-0123","OBJECT_ID":"2020-100M","EPOCH":"2026-01-06T06:41:51.553824","MEAN_MOTION":13.12442186,"ECCENTRICITY":0.00017825,"INCLINATION":87.8916,"RA_OF_ASC_NODE":22.8318,"ARG_OF_PERICENTER":95.0096,"MEAN_ANOMALY":265.1236,"EPHEMERIS_TYPE":0,"CLASSIFICATION_TYPE":"U","NORAD_CAT_ID":47269,"ELEMENT_SET_NO":999,"REV_AT_EPOCH":24345,"BSTAR":-0.00020488944,"MEAN_MOTION_DOT":-6.1e-7,"MEAN_MOTION_DDOT":0},{"OBJECT_NAME":"ONEWEB-0124","OBJECT_ID":"2020-100N","EPOCH":"2026-01-06T06:27:14.152320","MEAN_MOTION":13.12442803,"ECCENTRICITY":0.00018559,"INCLINATION":87.8917,"RA_OF_ASC_NODE":22.8386,"ARG_OF_PERICENTER":88.6582,"MEAN_ANOMALY":271.4759,"EPHEMERIS_TYPE":0,"CLASSIFICATION_TYPE":"U","NORAD_CAT_ID":47270,"ELEMENT_SET_NO":999,"REV_AT_EPOCH":24333,"BSTAR":0.000649192,"MEAN_MOTION_DOT":2.46e-6,"MEAN_MOTION_DDOT":0},{"OBJECT_NAME":"ONEWEB-0125","OBJECT_ID":"2020-100P","EPOCH":"2026-01-06T07:45:18.414720","MEAN_MOTION":13.12445496,"ECCENTRICITY":0.00020345,"INCLINATION":87.8925,"RA_OF_ASC_NODE":22.7932,"ARG_OF_PERICENTER":92.765,"MEAN_ANOMALY":267.3712,"EPHEMERIS_TYPE":0,"CLASSIFICATION_TYPE":"U","NORAD_CAT_ID":47271,"ELEMENT_SET_NO":999,"REV_AT_EPOCH":24340,"BSTAR":0.0007461999,"MEAN_MOTION_DOT":2.81e-6,"MEAN_MOTION_DDOT":0},{"OBJECT_NAME":"ONEWEB-0126","OBJECT_ID":"2020-100Q","EPOCH":"2026-01-06T06:24:59.954976","MEAN_MOTION":13.12440482,"ECCENTRICITY":0.00016571,"INCLINATION":87.8925,"RA_OF_ASC_NODE":22.8272,"ARG_OF_PERICENTER":95.4375,"MEAN_ANOMALY":264.6942,"EPHEMERIS_TYPE":0,"CLASSIFICATION_TYPE":"U","NORAD_CAT_ID":47272,"ELEMENT_SET_NO":999,"REV_AT_EPOCH":24346,"BSTAR":0.00087464579,"MEAN_MOTION_DOT":3.27e-6,"MEAN_MOTION_DDOT":0},{"OBJECT_NAME":"ONEWEB-0127","OBJECT_ID":"2020-100R","EPOCH":"2026-01-06T07:25:46.336512","MEAN_MOTION":13.12441638,"ECCENTRICITY":0.00015883,"INCLINATION":87.892,"RA_OF_ASC_NODE":22.8278,"ARG_OF_PERICENTER":93.2614,"MEAN_ANOMALY":266.8696,"EPHEMERIS_TYPE":0,"CLASSIFICATION_TYPE":"U","NORAD_CAT_ID":47273,"ELEMENT_SET_NO":999,"REV_AT_EPOCH":24349,"BSTAR":-0.00077085997,"MEAN_MOTION_DOT":-2.65e-6,"MEAN_MOTION_DDOT":0},{"OBJECT_NAME":"ONEWEB-0128","OBJECT_ID":"2020-100S","EPOCH":"2026-01-06T07:57:29.112480","MEAN_MOTION":13.1244245,"ECCENTRICITY":0.00016358,"INCLINATION":87.8915,"RA_OF_ASC_NODE":22.839,"ARG_OF_PERICENTER":80.9824,"MEAN_ANOMALY":279.149,"EPHEMERIS_TYPE":0,"CLASSIFICATION_TYPE":"U","NORAD_CAT_ID":47274,"ELEMENT_SET_NO":999,"REV_AT_EPOCH":24351,"BSTAR":0.0013846437,"MEAN_MOTION_DOT":5.11e-6,"MEAN_MOTION_DDOT":0},{"OBJECT_NAME":"ONEWEB-0129","OBJECT_ID":"2020-100T","EPOCH":"2026-01-06T07:28:12.921024","MEAN_MOTION":13.12442886,"ECCENTRICITY":0.00010198,"INCLINATION":87.8928,"RA_OF_ASC_NODE":22.8001,"ARG_OF_PERICENTER":132.6516,"MEAN_ANOMALY":227.4699,"EPHEMERIS_TYPE":0,"CLASSIFICATION_TYPE":"U","NORAD_CAT_ID":47275,"ELEMENT_SET_NO":999,"REV_AT_EPOCH":24344,"BSTAR":-0.00043426477,"MEAN_MOTION_DOT":-1.44e-6,"MEAN_MOTION_DDOT":0},{"OBJECT_NAME":"ONEWEB-0130","OBJECT_ID":"2020-100U","EPOCH":"2026-01-06T06:17:29.051520","MEAN_MOTION":13.12443615,"ECCENTRICITY":0.00016078,"INCLINATION":87.8924,"RA_OF_ASC_NODE":22.8041,"ARG_OF_PERICENTER":90.109,"MEAN_ANOMALY":270.0222,"EPHEMERIS_TYPE":0,"CLASSIFICATION_TYPE":"U","NORAD_CAT_ID":47276,"ELEMENT_SET_NO":999,"REV_AT_EPOCH":24340,"BSTAR":0.0012178123,"MEAN_MOTION_DOT":4.51e-6,"MEAN_MOTION_DDOT":0},{"OBJECT_NAME":"ONEWEB-0131","OBJECT_ID":"2020-100V","EPOCH":"2026-01-06T08:02:22.812000","MEAN_MOTION":13.12442356,"ECCENTRICITY":0.00016791,"INCLINATION":87.8925,"RA_OF_ASC_NODE":22.8199,"ARG_OF_PERICENTER":90.0073,"MEAN_ANOMALY":270.1248,"EPHEMERIS_TYPE":0,"CLASSIFICATION_TYPE":"U","NORAD_CAT_ID":47277,"ELEMENT_SET_NO":999,"REV_AT_EPOCH":24345,"BSTAR":0.0011628182,"MEAN_MOTION_DOT":4.31e-6,"MEAN_MOTION_DDOT":0}]
